0 SL-8 R/B
1 17360U 87009B   13281.86640142  .00000045  00000-0  30340-4 0  4108
2 17360 082.9227 192.0649 0032389 001.5340 064.0896 13.76554821340820
0 SL-8 R/B
1 17360U 87009B   13283.19464898  .00000042  00000-0  27714-4 0  4117
2 17360 082.9227 191.0757 0032294 357.8083 166.3612 13.76554865341006
0 SL-8 R/B
1 17360U 87009B   13284.21019148  .00000055  00000-0  40336-4 0  4125
2 17360 082.9227 190.3194 0032229 354.9417 159.0085 13.76554908341146
0 SL-8 R/B
1 17360U 87009B   13285.36989439  .00000061  00000-0  46269-4 0  4130
2 17360 082.9227 189.4558 0032151 351.7120 146.0174 13.76554950341309
0 SL-8 R/B
1 17360U 87009B   13286.80204220  .00000084  00000-0  70551-4 0  4145
2 17360 082.9226 188.3892 0032055 347.6634 043.2111 13.76554920341502
0 SL-8 R/B
1 17360U 87009B   13287.82598083  .00000104  00000-0  90966-4 0  4157
2 17360 082.9224 187.6268 0031998 344.6917 077.5486 13.76555169341641
0 SL-8 R/B
1 17360U 87009B   13288.84481836  .00000107  00000-0  93811-4 0  4163
2 17360 082.9222 186.8680 0031938 341.7814 086.5606 13.76555301341783
0 SL-8 R/B
1 17360U 87009B   13290.17251483  .00000109  00000-0  95272-4 0  4171
2 17360 082.9220 185.8793 0031857 337.9821 186.1795 13.76555601341969
0 SL-8 R/B
1 17360U 87009B   13292.20909676  .00000095  00000-0  81278-4 0  4187
2 17360 082.9217 184.3626 0031735 332.2011 198.7526 13.76556148342248
0 SL-8 R/B
1 17360U 87009B   13294.30945309  .00000083  00000-0  69404-4 0  4198
2 17360 082.9215 182.7983 0031609 326.2188 167.3932 13.76556737342531
